NORAD_CAT_ID,OBJECT_NAME,OBJECT_TYPE,EPOCH,MEAN_MOTION,ECCENTRICITY,INCLINATION,RA_OF_ASC_NODE,ARG_OF_PERICENTER,MEAN_ANOMALY,BSTAR,MEAN_MOTION_DOT,MEAN_MOTION_DDOT,TLE_LINE0,TLE_LINE1,TLE_LINE2,SEMIMAJOR_AXIS,PERIOD,APOGEE,PERIGEE,DECAYED
55315.0,STARLINK-4623,PAYLOAD,2024-05-13 12:35:55,14.98342191,0.0002835,69.9996,261.5767,274.7018,85.3817,-0.00024216,-2.982e-05,0.0,0 STARLINK-4623,1 55315U 23010AY  24134.52494249 -.00002982  00000-0 -24216-3 0  9999,2 55315  69.9996 261.5767 0002835 274.7018  85.3817 14.98342191 73330,6950.155,96.106,573.991,570.05,0.0
55315.0,STARLINK-4623,PAYLOAD,2024-05-14 12:37:55,14.98299455,0.0003265,69.9994,259.0537,279.6879,80.3911,0.0011388,0.00013511,0.0,0 STARLINK-4623,1 55315U 23010AY  24135.52633738  .00013511  00000-0  11388-2 0  9991,2 55315  69.9994 259.0537 0003265 279.6879  80.3911 14.98299455 73482,6950.287,96.109,574.422,569.883,0.0
55315.0,STARLINK-4623,PAYLOAD,2024-05-14 14:14:03,14.98304146,0.0003061,69.9992,258.8853,273.7104,86.3705,0.0011771,0.00013971,0.0,0 STARLINK-4623,1 55315U 23010AY  24135.59309402  .00013971  00000-0  11771-2 0  9992,2 55315  69.9992 258.8853 0003061 273.7104  86.3705 14.98304146 73782,6950.273,96.109,574.265,570.01,0.0
55315.0,STARLINK-4623,PAYLOAD,2024-05-15 01:26:58,14.98348814,0.0002954,70.0001,257.7091,268.1567,91.9254,0.00035871,4.192e-05,0.0,0 STARLINK-4623,1 55315U 23010AY  24136.06040447  .00004192  00000-0  35871-3 0  9999,2 55315  70.0001 257.7091 0002954 268.1567  91.9254 14.98348814 73566,6950.135,96.106,574.053,569.947,0.0
55315.0,STARLINK-4623,PAYLOAD,2024-05-15 12:39:55,14.98351022,0.0002725,70.0006,256.5292,272.7181,87.3666,2.5723e-05,2.14e-06,0.0,0 STARLINK-4623,1 55315U 23010AY  24136.52772486  .00000214  00000-0  25723-4 0  9992,2 55315  70.0006 256.5292 0002725 272.7181  87.3666 14.98351022 73639,6950.128,96.106,573.887,570.099,0.0
55315.0,STARLINK-4623,PAYLOAD,2024-05-15 14:16:03,14.98351907,0.000292,70.0007,256.3627,274.9314,85.1511,-6.8916e-06,-1.75e-06,0.0,0 STARLINK-4623,1 55315U 23010AY  24136.59448497 -.00000175  00000-0 -68916-5 0  9991,2 55315  70.0007 256.3627 0002920 274.9314  85.1511 14.98351907 73939,6950.125,96.106,574.02,569.961,0.0
55315.0,STARLINK-4623,PAYLOAD,2024-05-15 17:28:18,14.98360939,0.0002858,70.0002,256.0262,269.8847,90.1985,4.0948e-06,-4.4e-07,0.0,0 STARLINK-4623,1 55315U 23010AY  24136.72799541 -.00000044  00000-0  40948-5 0  9994,2 55315  70.0002 256.0262 0002858 269.8847  90.1985 14.98360939 73666,6950.097,96.105,573.949,569.976,0.0
55315.0,STARLINK-4623,PAYLOAD,2024-05-16 01:28:59,14.98354215,0.0002352,69.9997,255.1806,261.5085,98.5807,-0.00018109,-2.254e-05,0.0,0 STARLINK-4623,1 55315U 23010AY  24137.06180011 -.00002254  00000-0 -18109-3 0  9996,2 55315  69.9997 255.1806 0002352 261.5085  98.5807 14.98354215 73713,6950.118,96.105,573.618,570.348,0.0
55315.0,STARLINK-4623,PAYLOAD,2024-05-16 11:05:48,14.98344506,0.0002541,69.9985,254.1684,260.893,99.1942,-0.00026227,-3.222e-05,0.0,0 STARLINK-4623,1 55315U 23010AY  24137.46236263 -.00003222  00000-0 -26227-3 0  9997,2 55315  69.9985 254.1684 0002541 260.8930  99.1942 14.98344506 73779,6950.148,96.106,573.779,570.247,0.0
55315.0,STARLINK-4623,PAYLOAD,2024-05-16 14:18:04,14.98347093,0.0002971,69.9986,253.8347,270.5877,89.4942,-0.00027951,-3.428e-05,0.0,0 STARLINK-4623,1 55315U 23010AY  24137.59587990 -.00003428  00000-0 -27951-3 0  9990,2 55315  69.9986 253.8347 0002971 270.5877  89.4942 14.98347093 74088,6950.14,96.106,574.07,569.94,0.0
55315.0,STARLINK-4623,PAYLOAD,2024-05-16 17:30:19,14.98347439,0.0002663,69.999,253.4976,268.9417,91.1437,-0.00023367,-2.881e-05,0.0,0 STARLINK-4623,1 55315U 23010AY  24137.72939730 -.00002881  00000-0 -23367-3 0  9997,2 55315  69.9990 253.4976 0002663 268.9417  91.1437 14.98347439 74102,6950.139,96.106,573.855,570.153,0.0
55315.0,STARLINK-4623,PAYLOAD,2024-05-17 11:07:48,14.9833488,0.0002726,70.0004,251.6487,273.3424,86.7423,-0.00011643,-1.482e-05,0.0,0 STARLINK-4623,1 55315U 23010AY  24138.46375625 -.00001482  00000-0 -11643-3 0  9996,2 55315  70.0004 251.6487 0002726 273.3424  86.7423 14.98334880 73926,6950.178,96.107,573.937,570.148,0.0
55315.0,STARLINK-4623,PAYLOAD,2024-05-17 14:20:04,14.98333088,0.0003148,70.0,251.3114,266.1917,93.8882,-0.00023185,-2.859e-05,0.0,0 STARLINK-4623,1 55315U 23010AY  24138.59727954 -.00002859  00000-0 -23185-3 0  9999,2 55315  70.0000 251.3114 0003148 266.1917  93.8882 14.98333088 74234,6950.183,96.107,574.236,569.86,0.0
55315.0,STARLINK-4623,PAYLOAD,2024-05-18 11:09:49,14.9832748,0.0003739,70.0004,249.1218,288.2358,71.8394,9.3871e-05,1.027e-05,0.0,0 STARLINK-4623,1 55315U 23010AY  24139.46515672  .00001027  00000-0  93871-4 0  9992,2 55315  70.0004 249.1218 0003739 288.2358  71.8394 14.98327480 74073,6950.201,96.107,574.664,569.467,0.0
55315.0,STARLINK-4623,PAYLOAD,2024-05-18 14:22:03,14.98351789,0.0003572,69.9971,248.7842,280.8566,79.2191,0.00024899,2.881e-05,0.0,0 STARLINK-4623,1 55315U 23010AY  24139.59865607  .00002881  00000-0  24899-3 0  9994,2 55315  69.9971 248.7842 0003572 280.8566  79.2191 14.98351789 74385,6950.126,96.106,574.473,569.508,0.0
55315.0,STARLINK-4623,PAYLOAD,2024-05-18 17:34:19,14.98350421,0.0003114,70.0008,248.4518,273.3935,86.6867,0.00030689,3.573e-05,0.0,0 STARLINK-4623,1 55315U 23010AY  24139.73217380  .00003573  00000-0  30689-3 0  9992,2 55315  70.0008 248.4518 0003114 273.3935  86.6867 14.98350421 74110,6950.13,96.106,574.159,569.83,0.0
55315.0,STARLINK-4623,PAYLOAD,2024-05-18 23:58:53,14.98331134,0.0003019,70.0011,247.7779,273.1729,86.9085,2.2085e-05,1.71e-06,0.0,0 STARLINK-4623,1 55315U 23010AY  24139.99923035  .00000171  00000-0  22085-4 0  9994,2 55315  70.0011 247.7779 0003019 273.1729  86.9085 14.98331134 74157,6950.189,96.107,574.153,569.956,0.0
55315.0,STARLINK-4623,PAYLOAD,2024-05-19 12:48:00,14.98302171,0.0002788,70.0005,246.4303,273.2561,86.8279,-0.0002164,-2.672e-05,0.0,0 STARLINK-4623,1 55315U 23010AY  24140.53334112 -.00002672  00000-0 -21640-3 0  9993,2 55315  70.0005 246.4303 0002788 273.2561  86.8279 14.98302171 74520,6950.279,96.109,574.082,570.206,0.0
55315.0,STARLINK-4623,PAYLOAD,2024-05-19 16:00:16,14.98305831,0.0002453,70.0012,246.0952,268.5884,91.4994,-0.00014654,-1.84e-05,0.0,0 STARLINK-4623,1 55315U 23010AY  24140.66685895 -.00001840  00000-0 -14654-3 0  9997,2 55315  70.0012 246.0952 0002453 268.5884  91.4994 14.98305831 74250,6950.268,96.109,573.838,570.428,0.0
55315.0,STARLINK-4623,PAYLOAD,2024-05-20 11:13:51,14.98339919,0.0003228,69.9991,244.0718,279.0188,81.0605,-0.00011554,-1.472e-05,0.0,0 STARLINK-4623,1 55315U 23010AY  24141.46795873 -.00001472  00000-0 -11554-3 0  9991,2 55315  69.9991 244.0718 0003228 279.0188  81.0605 14.98339919 74377,6950.162,96.106,574.271,569.784,0.0
55315.0,STARLINK-4623,PAYLOAD,2024-05-20 14:26:07,14.98343388,0.0002395,70.001,243.7372,258.7654,101.3235,-2.6137e-05,-4.05e-06,0.0,0 STARLINK-4623,1 55315U 23010AY  24141.60147260 -.00000405  00000-0 -26137-4 0  9997,2 55315  70.0010 243.7372 0002395 258.7654 101.3235 14.98343388 74684,6950.151,96.106,573.681,570.352,0.0
55315.0,STARLINK-4623,PAYLOAD,2024-05-20 17:38:22,14.98356212,0.0002916,70.0002,243.4018,264.0004,96.0823,1.7511e-05,1.16e-06,0.0,0 STARLINK-4623,1 55315U 23010AY  24141.73498178  .00000116  00000-0  17511-4 0  9991,2 55315  70.0002 243.4018 0002916 264.0004  96.0823 14.98356212 74411,6950.112,96.105,574.003,569.95,0.0
55315.0,STARLINK-4623,PAYLOAD,2024-05-21 12:52:01,14.98313919,0.0002499,70.0012,241.3821,243.8814,116.2088,0.00016789,1.91e-05,0.0,0 STARLINK-4623,1 55315U 23010AY  24142.53612412  .00001910  00000-0  16789-3 0  9997,2 55315  70.0012 241.3821 0002499 243.8814 116.2088 14.98313919 74539,6950.243,96.108,573.844,570.371,0.0
55315.0,STARLINK-4623,PAYLOAD,2024-05-21 14:28:09,14.9831648,0.0002642,70.0007,241.2148,251.0764,109.0109,0.00012027,1.342e-05,0.0,0 STARLINK-4623,1 55315U 23010AY  24142.60288510  .00001342  00000-0  12027-3 0  9993,2 55315  70.0007 241.2148 0002642 251.0764 109.0109 14.98316480 74832,6950.235,96.108,573.936,570.263,0.0
55315.0,STARLINK-4623,PAYLOAD,2024-05-21 16:04:17,14.98317164,0.0002553,70.001,241.0467,249.7914,110.297,0.00013638,1.534e-05,0.0,0 STARLINK-4623,1 55315U 23010AY  24142.66964468  .00001534  00000-0  13638-3 0  9994,2 55315  70.0010 241.0467 0002553 249.7914 110.2970 14.98317164 74841,6950.233,96.108,573.872,570.323,0.0
55315.0,STARLINK-4623,PAYLOAD,2024-05-22 11:17:53,14.983349,0.0002531,70.0013,239.0253,231.7811,128.3121,-0.00010074,-1.295e-05,0.0,0 STARLINK-4623,1 55315U 23010AY  24143.47075983 -.00001295  00000-0 -10074-3 0  9996,2 55315  70.0013 239.0253 0002531 231.7811 128.3121 14.98334900 74673,6950.178,96.107,573.802,570.284,0.0
55315.0,STARLINK-4623,PAYLOAD,2024-05-23 12:56:02,14.98328123,0.0002633,70.0009,236.3327,255.2237,104.863,5.7394e-05,5.92e-06,0.0,0 STARLINK-4623,1 55315U 23010AY  24144.53891805  .00000592  00000-0  57394-4 0  9997,2 55315  70.0009 236.3327 0002633 255.2237 104.8630 14.98328123 74838,6950.199,96.107,573.894,570.234,0.0
55315.0,STARLINK-4623,PAYLOAD,2024-05-23 14:32:10,14.98329268,0.0002632,70.0009,236.1644,255.5035,104.5832,6.8182e-05,7.21e-06,0.0,0 STARLINK-4623,1 55315U 23010AY  24144.60567704  .00000721  00000-0  68182-4 0  9994,2 55315  70.0009 236.1644 0002632 255.5035 104.5832 14.98329268 75132,6950.195,96.107,573.889,570.231,0.0
55315.0,STARLINK-4623,PAYLOAD,2024-05-23 16:08:18,14.98330589,0.0002639,70.001,235.9963,255.9251,104.1615,8.0126e-05,8.63e-06,0.0,0 STARLINK-4623,1 55315U 23010AY  24144.67243588  .00000863  00000-0  80126-4 0  9991,2 55315  70.0010 235.9963 0002639 255.9251 104.1615 14.98330589 75140,6950.191,96.107,573.89,570.222,0.0
55315.0,STARLINK-4623,PAYLOAD,2024-05-24 12:58:02,14.98336526,0.0002688,70.001,233.8078,261.1112,98.9743,5.1391e-05,5.2e-06,0.0,0 STARLINK-4623,1 55315U 23010AY  24145.54031094  .00000520  00000-0  51391-4 0  9997,2 55315  70.0010 233.8078 0002688 261.1112  98.9743 14.98336526 74983,6950.173,96.107,573.906,570.17,0.0
